ORBCOMM FM103           
1 40091U 14040F   24207.15048127  .00001600  00000+0  39113-3 0  9992
2 40091  47.0058 120.8361 0002061 231.3474 128.7227 14.56796185533455
ORBCOMM FM114           
1 41179U 15081A   24206.90617532  .00002039  00000+0  48718-3 0  9998
2 41179  47.0029  31.2105 0002002 267.1418  92.9238 14.56893685456723
ORBCOMM FM119           
1 41180U 15081B   24207.49792916  .00001304  00000+0  32585-3 0  9994
2 41180  47.0016 297.6476 0001749 314.6413  45.4329 14.56780227458060
ORBCOMM FM105           
1 41181U 15081C   24207.21856698  .00000686  00000+0  24202-3 0  9992
2 41181  47.0013 272.8344 0002669 285.5087  74.5499 14.44495666453571
ORBCOMM FM110           
1 41182U 15081D   24206.88420856  .00002037  00000+0  48707-3 0  9996
2 41182  47.0020  30.7243 0001362 123.7700 236.3314 14.56859941456595
ORBCOMM FM118           
1 41183U 15081E   24206.93049202  .00001910  00000+0  45907-3 0  9993
2 41183  47.0051  30.8317 0001546 115.4389 244.6657 14.56862689456706
ORBCOMM FM112           
1 41184U 15081F   24206.72032819  .00002339  00000+0  55468-3 0  9996
2 41184  46.9990 300.5134 0002350 296.0802  63.9841 14.56785013457894
ORBCOMM FM113           
1 41185U 15081G   24206.69762015  .00002303  00000+0  54674-3 0  9990
2 41185  47.0009 300.9000 0001839 301.7690  58.3016 14.56782631457877
